OBJECT_NAME,OBJECT_ID,EPOCH,MEAN_MOTION,ECCENTRICITY,INCLINATION,RA_OF_ASC_NODE,ARG_OF_PERICENTER,MEAN_ANOMALY,EPHEMERIS_TYPE,CLASSIFICATION_TYPE,NORAD_CAT_ID,ELEMENT_SET_NO,REV_AT_EPOCH,BSTAR,MEAN_MOTION_DOT,MEAN_MOTION_DDOT
STARLINK-1726,2020-062AP,2025-12-06T08:32:10.046976,15.50675985,.00033757,53.0511,0.3483,308.6164,51.4542,0,U,46362,999,29130,.12287119E-2,.71944E-3,0
STARLINK-1651,2020-062AT,2025-12-06T08:37:31.945728,15.50627610,.00089111,53.0472,11.2329,322.6416,37.3971,0,U,46366,999,29114,.11789735E-2,.68954E-3,0
STARLINK-1724,2020-062BC,2025-12-06T09:51:22.442688,15.35244616,.00017919,53.0368,10.9588,355.6027,4.4958,0,U,46375,999,29115,.94498187E-3,.32564E-3,0
STARLINK-1742,2020-062BD,2025-12-06T11:21:29.729664,15.47147233,.00034626,53.0381,352.0606,197.5916,162.4971,0,U,46376,999,29142,.10780159E-2,.55569E-3,0
STARLINK-1769,2020-062BK,2025-12-06T16:00:03.000096,15.59584065,.00065353,53.0461,0.5497,295.7838,227.7951,0,U,46382,999,586,.18884646E-4,.1013E-4,0
STARLINK-1770,2020-062BL,2025-12-06T13:45:25.912512,15.44544715,.00037233,53.0492,45.5975,277.2926,82.7657,0,U,46383,999,29068,.61341037E-3,.2862E-3,0
STARLINK-1771,2020-062BM,2025-12-06T13:03:00.236736,15.32016484,.00045284,53.0480,65.7494,300.7076,59.3477,0,U,46384,999,29039,.61286966E-3,.18894E-3,0
GAOFEN-11 02,2020-064A,2025-12-06T19:39:29.959200,15.23293519,.0017535,97.4939,101.9110,275.8853,84.0385,0,U,46396,999,29224,.56407E-3,.13375E-3,0
JILIN-1 GAOFEN 3B,2020-065A,2025-12-06T14:44:55.108608,15.59877764,.00045115,97.2544,30.0799,102.9456,257.2305,0,U,46454,999,29013,.11714916E-2,.95056E-3,0
JILIN-1 GAOFEN 3C,2020-065B,2025-12-06T14:46:51.581856,15.72557248,.00028454,97.2500,31.9732,110.3400,249.8170,0,U,46455,999,29033,.13217343E-2,.179841E-2,0
JILIN-1 GAOFEN 3D,2020-065C,2025-12-06T15:12:02.177856,15.87320420,.00009675,97.2550,36.6273,133.9801,226.1551,0,U,46456,999,29049,.14730818E-2,.401183E-2,0
JILIN-1 GAOFEN 3E,2020-065D,2025-12-06T14:26:08.234880,15.46338648,.00178841,97.2601,26.0188,146.5118,213.7266,0,U,46457,999,28984,.95576052E-3,.47581E-3,0
JILIN-1 GAOFEN 3F,2020-065E,2025-12-06T14:38:38.836608,15.45270357,.00193965,97.2539,23.9911,134.6494,225.6340,0,U,46458,999,28982,.93537637E-3,.44924E-3,0
JILIN-1 GAOFEN 3G,2020-065F,2025-12-06T14:53:59.258400,15.48980085,.00169725,97.2643,28.8133,46.2731,313.9923,0,U,46459,999,28994,.10401823E-2,.56791E-3,0
JILIN-1 GAOFEN 3H,2020-065G,2025-12-06T15:15:53.081856,15.48178007,.00092035,97.2554,25.8271,341.8909,18.2013,0,U,46460,999,28992,.92105091E-3,.48645E-3,0
JILIN-1 GAOFEN 3I,2020-065H,2025-12-06T15:25:28.009056,15.55729748,.00153253,97.2596,30.2760,74.1678,286.1266,0,U,46461,999,29007,.10659726E-2,.74234E-3,0
JILIN-1 GAOFEN 3J,2020-065J,2025-12-06T14:54:48.491712,15.58034001,.00055815,97.2575,29.7547,103.3144,256.8735,0,U,46462,999,29011,.11564889E-2,.87483E-3,0
HAIYANG-2C,2020-066A,2025-12-06T13:44:23.439264,13.83372952,.0014311,65.9969,334.8512,265.2035,94.7399,0,U,46469,999,26285,.10367869E-3,.33E-6,0
HJ-2A,2020-067A,2025-12-06T15:20:19.898016,14.76504925,.00038133,97.9019,58.4045,140.1122,220.0369,0,U,46478,999,27984,.24860401E-3,.1682E-4,0
HJ-2B,2020-067B,2025-12-06T14:35:02.688864,14.76500689,.00011092,97.9076,59.2540,88.6687,271.4650,0,U,46479,999,27984,.28237482E-3,.1917E-4,0
GONETS-M 17,2020-068A,2025-12-06T15:47:07.888416,12.42865646,.00233282,82.4964,107.2810,96.5825,263.7911,0,U,46486,999,23524,.18345478E-3,.35E-6,0
GONETS-M 18,2020-068B,2025-12-06T14:57:06.883776,12.42892874,.0020683,82.4918,106.4961,93.6479,266.6967,0,U,46487,999,23522,.1322701E-3,.28E-6,0
GONETS-M 19,2020-068C,2025-12-06T14:23:39.979392,12.42884662,.00144448,82.4943,106.9231,108.2245,252.0408,0,U,46488,999,23532,.93403654E-4,.23E-6,0
DEKART,2020-068H,2025-12-06T13:13:10.139520,15.31913477,.00082749,97.8721,331.8343,243.7746,116.2644,0,U,46493,999,28622,.65582259E-3,.20175E-3,0
NORBI,2020-068J,2025-12-06T09:39:24.406848,15.38785512,.00063529,97.8665,335.7422,222.2490,137.8266,0,U,46494,999,28646,.93999198E-3,.36104E-3,0
SALSAT,2020-068K,2025-12-06T10:25:30.735264,15.26163129,.00086429,97.8778,327.3672,256.1755,103.8520,0,U,46495,999,28592,.57075182E-3,.14698E-3,0
ICEYE-X7,2020-068L,2025-12-06T14:43:41.519136,15.26230276,.00067047,97.7288,294.4243,291.9153,68.1372,0,U,46496,999,28536,.8042476E-3,.20796E-3,0
ICEYE-X6,2020-068M,2025-12-06T13:38:07.020384,15.03051577,.00079733,98.0826,320.4047,21.3018,338.8536,0,U,46497,999,28428,.53735582E-3,.7182E-4,0
NETSAT-4,2020-068U,2025-12-05T22:11:46.330656,15.36450918,.00046182,97.8591,328.7540,302.6439,57.4358,0,U,46504,999,28602,.69955163E-3,.24848E-3,0
NETSAT-3,2020-068V,2025-12-06T14:42:09.680256,15.35037241,.00046942,97.8615,328.0197,322.1316,37.9596,0,U,46505,999,28606,.80166049E-3,.27239E-3,0
