[{"norad_id":"46495","company":"AMATEUR","tle_line2":"2 46495  97.8778 327.3672 0008642 256.1755 103.8520 15.26163129285928","launch_date":"2020-09-28","type":"LEO","tle_line1":"1 46495U 20068K   25340.43438351  .00014698  00000+0  57075-3 0  9993","satellite_name":"SALSAT"},{"norad_id":"46454","company":"SATNOGS","tle_line2":"2 46454  97.2544  30.0799 0004511 102.9456 257.2305 15.59877764290130","launch_date":"2020-09-15","type":"LEO","tle_line1":"1 46454U 20065A   25340.61452672  .00095056  00000+0  11715-2 0  9994","satellite_name":"JILIN-1 GAOFEN 3B"},{"norad_id":"46457","company":"SATNOGS","tle_line2":"2 46457  97.2601  26.0188 0017884 146.5118 213.7266 15.46338648289848","launch_date":"2020-09-15","type":"LEO","tle_line1":"1 46457U 20065D   25340.60148420  .00047581  00000+0  95576-3 0  9997","satellite_name":"JILIN-1 GAOFEN 3E"},{"norad_id":"46458","company":"SATNOGS","tle_line2":"2 46458  97.2539  23.9911 0019396 134.6494 225.6340 15.45270357289828","launch_date":"2020-09-15","type":"LEO","tle_line1":"1 46458U 20065E   25340.61017172  .00044924  00000+0  93538-3 0  9992","satellite_name":"JILIN-1 GAOFEN 3F"},{"norad_id":"46459","company":"SATNOGS","tle_line2":"2 46459  97.2643  28.8133 0016972  46.2731 313.9923 15.48980085289944","launch_date":"2020-09-15","type":"LEO","tle_line1":"1 46459U 20065F   25340.62082475  .00056791  00000+0  10402-2 0  9995","satellite_name":"JILIN-1 GAOFEN 3G"},{"norad_id":"46460","company":"SATNOGS","tle_line2":"2 46460  97.2554  25.8271 0009203 341.8909  18.2013 15.48178007289923","launch_date":"2020-09-15","type":"LEO","tle_line1":"1 46460U 20065G   25340.63603104  .00048645  00000+0  92105-3 0  9996","satellite_name":"JILIN-1 GAOFEN 3H"},{"norad_id":"46462","company":"SATNOGS","tle_line2":"2 46462  97.2575  29.7547 0005581 103.3144 256.8735 15.58034001290114","launch_date":"2020-09-15","type":"LEO","tle_line1":"1 46462U 20065J   25340.62139458  .00087483  00000+0  11565-2 0  9996","satellite_name":"JILIN-1 GAOFEN 3J"},{"norad_id":"46469","company":"SATNOGS","tle_line2":"2 46469  65.9969 334.8512 0014311 265.2035  94.7399 13.83372952262851","launch_date":"2020-09-21","type":"LEO","tle_line1":"1 46469U 20066A   25340.57249351  .00000033  00000+0  10368-3 0  9999","satellite_name":"HAIYANG-2C"},{"norad_id":"46478","company":"SATNOGS","tle_line2":"2 46478  97.9019  58.4045 0003813 140.1122 220.0369 14.76504925279843","launch_date":"2020-09-27","type":"LEO","tle_line1":"1 46478U 20067A   25340.63911919  .00001682  00000+0  24860-3 0  9996","satellite_name":"HJ-2A"},{"norad_id":"46479","company":"SATNOGS","tle_line2":"2 46479  97.9076  59.2540 0001109  88.6687 271.4650 14.76500689279840","launch_date":"2020-09-27","type":"LEO","tle_line1":"1 46479U 20067B   25340.60767001  .00001917  00000+0  28237-3 0  9998","satellite_name":"HJ-2B"},{"norad_id":"46486","company":"SATNOGS","tle_line2":"2 46486  82.4964 107.2810 0023328  96.5825 263.7911 12.42865646235244","launch_date":"2020-09-28","type":"LEO","tle_line1":"1 46486U 20068A   25340.65773019  .00000035  00000+0  18345-3 0  9997","satellite_name":"GONETS-M 17"},{"norad_id":"46487","company":"SATNOGS","tle_line2":"2 46487  82.4918 106.4961 0020683  93.6479 266.6967 12.42892874235220","launch_date":"2020-09-28","type":"LEO","tle_line1":"1 46487U 20068B   25340.62299634  .00000028  00000+0  13227-3 0  9997","satellite_name":"GONETS-M 18"},{"norad_id":"46488","company":"SATNOGS","tle_line2":"2 46488  82.4943 106.9231 0014444 108.2245 252.0408 12.42884662235322","launch_date":"2020-09-28","type":"LEO","tle_line1":"1 46488U 20068C   25340.59976828  .00000023  00000+0  93404-4 0  9992","satellite_name":"GONETS-M 19"},{"norad_id":"46493","company":"SATNOGS","tle_line2":"2 46493  97.8721 331.8343 0008274 243.7746 116.2644 15.31913477286226","launch_date":"2020-09-28","type":"LEO","tle_line1":"1 46493U 20068H   25340.55081180  .00020175  00000+0  65582-3 0  9997","satellite_name":"DEKART"},{"norad_id":"46494","company":"SATNOGS","tle_line2":"2 46494  97.8665 335.7422 0006352 222.2490 137.8266 15.38785512286467","launch_date":"2020-09-28","type":"LEO","tle_line1":"1 46494U 20068J   25340.40236582  .00036104  00000+0  93999-3 0  9992","satellite_name":"NORBI"},{"norad_id":"46497","company":"SATNOGS","tle_line2":"2 46497  98.0826 320.4047 0007973  21.3018 338.8536 15.03051577284280","launch_date":"2020-09-28","type":"LEO","tle_line1":"1 46497U 20068M   25340.56813681  .00007182  00000+0  53736-3 0  9992","satellite_name":"ICEYE-X6"},{"norad_id":"46504","company":"SATNOGS","tle_line2":"2 46504  97.8591 328.7540 0004618 302.6439  57.4358 15.36450918286027","launch_date":"2020-09-28","type":"LEO","tle_line1":"1 46504U 20068U   25339.92484179  .00024848  00000+0  69955-3 0  9993","satellite_name":"NETSAT-4"},{"norad_id":"46505","company":"SATNOGS","tle_line2":"2 46505  97.8615 328.0197 0004694 322.1316  37.9596 15.35037241286061","launch_date":"2020-09-28","type":"LEO","tle_line1":"1 46505U 20068V   25340.61261204  .00027239  00000+0  80166-3 0  9998","satellite_name":"NETSAT-3"},{"norad_id":"46362","company":"STARLINK","tle_line2":"2 46362  53.0511   0.3483 0003375 308.6164  51.4542 15.50675985291309","launch_date":"2020-09-03","type":"LEO","tle_line1":"1 46362U 20062AP  25340.35567184  .00071944  00000+0  12287-2 0  9990","satellite_name":"STARLINK-1726"},{"norad_id":"46366","company":"STARLINK","tle_line2":"2 46366  53.0472  11.2329 0008911 322.6416  37.3971 15.50627610291149","launch_date":"2020-09-03","type":"LEO","tle_line1":"1 46366U 20062AT  25340.35939752  .00068954  00000+0  11790-2 0  9993","satellite_name":"STARLINK-1651"},{"norad_id":"46375","company":"STARLINK","tle_line2":"2 46375  53.0368  10.9588 0001791 355.6027   4.4958 15.35244616291154","launch_date":"2020-09-03","type":"LEO","tle_line1":"1 46375U 20062BC  25340.41067642  .00032564  00000+0  94498-3 0  9995","satellite_name":"STARLINK-1724"},{"norad_id":"46376","company":"STARLINK","tle_line2":"2 46376  53.0381 352.0606 0003462 197.5916 162.4971 15.47147233291428","launch_date":"2020-09-03","type":"LEO","tle_line1":"1 46376U 20062BD  25340.47326076  .00055569  00000+0  10780-2 0  9992","satellite_name":"STARLINK-1742"},{"norad_id":"46382","company":"STARLINK","tle_line2":"2 46382  53.0461   0.5497 0006535 295.7838 227.7951 15.59584065  5860","launch_date":"2020-09-03","type":"LEO","tle_line1":"1 46382U 20062BK  25340.66670139  .00001013  00000+0  18885-4 0  9993","satellite_name":"STARLINK-1769"},{"norad_id":"46383","company":"STARLINK","tle_line2":"2 46383  53.0492  45.5975 0003723 277.2926  82.7657 15.44544715290684","launch_date":"2020-09-03","type":"LEO","tle_line1":"1 46383U 20062BL  25340.57321658  .00028620  00000+0  61341-3 0  9990","satellite_name":"STARLINK-1770"},{"norad_id":"46384","company":"STARLINK","tle_line2":"2 46384  53.0480  65.7494 0004528 300.7076  59.3477 15.32016484290396","launch_date":"2020-09-03","type":"LEO","tle_line1":"1 46384U 20062BM  25340.54375274  .00018894  00000+0  61287-3 0  9992","satellite_name":"STARLINK-1771"},{"norad_id":"46396","company":"ACTIVE","tle_line2":"2 46396  97.4939 101.9110 0017535 275.8853  84.0385 15.23293519292240","launch_date":"2020-09-07","type":"LEO","tle_line1":"1 46396U 20064A   25340.81909675  .00013375  00000+0  56407-3 0  9992","satellite_name":"GAOFEN-11 02"},{"norad_id":"46455","company":"ACTIVE","tle_line2":"2 46455  97.2500  31.9732 0002845 110.3400 249.8170 15.72557248290336","launch_date":"2020-09-15","type":"LEO","tle_line1":"1 46455U 20065B   25340.61587479  .00179841  00000+0  13217-2 0  9993","satellite_name":"JILIN-1 GAOFEN 3C"},{"norad_id":"46456","company":"ACTIVE","tle_line2":"2 46456  97.2550  36.6273 0000967 133.9801 226.1551 15.87320420290497","launch_date":"2020-09-15","type":"LEO","tle_line1":"1 46456U 20065C   25340.63335854  .00401183  00000+0  14731-2 0  9993","satellite_name":"JILIN-1 GAOFEN 3D"},{"norad_id":"46461","company":"ACTIVE","tle_line2":"2 46461  97.2596  30.2760 0015325  74.1678 286.1266 15.55729748290070","launch_date":"2020-09-15","type":"LEO","tle_line1":"1 46461U 20065H   25340.64268529  .00074234  00000+0  10660-2 0  9994","satellite_name":"JILIN-1 GAOFEN 3I"},{"norad_id":"46496","company":"ACTIVE","tle_line2":"2 46496  97.7288 294.4243 0006704 291.9153  68.1372 15.26230276285362","launch_date":"2020-09-28","type":"LEO","tle_line1":"1 46496U 20068L   25340.61367499  .00020796  00000+0  80425-3 0  9999","satellite_name":"ICEYE-X7"}]